{
  "type": "FeatureCollection",
  "features": [
    {
      "type": "Feature",
      "properties": {
        "norad_id": 66909,
        "name": "SILVERSAT",
        "group": "stations",
        "lat": 43.32599026860908,
        "lon": -172.12849182644285,
        "alt_km": 408.70586385097886,
        "timestamp": "2025-12-13T07:35:40.356881+00:00",
        "meta_object_name": "SILVERSAT",
        "meta_object_id": "1998-067XV",
        "meta_epoch": "2025-12-12T22:03:29.727648",
        "meta_mean_motion": 15.51661311,
        "meta_eccentricity": 0.00044499,
        "meta_inclination": 51.6297,
        "meta_ra_of_asc_node": 141.4878,
        "meta_arg_of_pericenter": 228.6613,
        "meta_mean_anomaly": 131.3994,
        "meta_ephemeris_type": 0,
        "meta_classification_type": "U",
        "meta_norad_cat_id": 66909,
        "meta_element_set_no": 999,
        "meta_rev_at_epoch": 164,
        "meta_bstar": 0.0015570359,
        "meta_mean_motion_dot": 0.00094974,
        "meta_mean_motion_ddot": 0,
        "tle_line1": "1 66909U 98067XV  25346.91909407  .00094974  00000+0  15570-2 0  9991",
        "tle_line2": "2 66909  51.6297 141.4878 0004449 228.6613 131.3994 15.51661311  1645"
      },
      "geometry": {
        "type": "Point",
        "coordinates": [
          -172.12849182644285,
          43.32599026860908
        ]
      }
    },
    {
      "type": "Feature",
      "properties": {
        "norad_id": 66910,
        "name": "1998-067XW",
        "group": "stations",
        "lat": 47.301889059972126,
        "lon": -161.33631356375594,
        "alt_km": 407.62298923517756,
        "timestamp": "2025-12-13T07:35:40.356892+00:00",
        "meta_object_name": "1998-067XW",
        "meta_object_id": "1998-067XW",
        "meta_epoch": "2025-12-12T20:28:35.609952",
        "meta_mean_motion": 15.51770354,
        "meta_eccentricity": 0.00052525,
        "meta_inclination": 51.6298,
        "meta_ra_of_asc_node": 141.7982,
        "meta_arg_of_pericenter": 209.4111,
        "meta_mean_anomaly": 150.6584,
        "meta_ephemeris_type": 0,
        "meta_classification_type": "U",
        "meta_norad_cat_id": 66910,
        "meta_element_set_no": 999,
        "meta_rev_at_epoch": 163,
        "meta_bstar": 0.001333891,
        "meta_mean_motion_dot": 0.00081487,
        "meta_mean_motion_ddot": 0,
        "tle_line1": "1 66910U 98067XW  25346.85318993  .00081487  00000+0  13339-2 0  9996",
        "tle_line2": "2 66910  51.6298 141.7982 0005252 209.4111 150.6584 15.51770354  1636"
      },
      "geometry": {
        "type": "Point",
        "coordinates": [
          -161.33631356375594,
          47.301889059972126
        ]
      }
    },
    {
      "type": "Feature",
      "properties": {
        "norad_id": 66911,
        "name": "1998-067XX",
        "group": "stations",
        "lat": 48.95444861975233,
        "lon": -155.00982698712824,
        "alt_km": 406.3516871430047,
        "timestamp": "2025-12-13T07:35:40.356901+00:00",
        "meta_object_name": "1998-067XX",
        "meta_object_id": "1998-067XX",
        "meta_epoch": "2025-12-12T17:22:05.659968",
        "meta_mean_motion": 15.51996459,
        "meta_eccentricity": 0.0004979,
        "meta_inclination": 51.6296,
        "meta_ra_of_asc_node": 142.4333,
        "meta_arg_of_pericenter": 210.3883,
        "meta_mean_anomaly": 149.6819,
        "meta_ephemeris_type": 0,
        "meta_classification_type": "U",
        "meta_norad_cat_id": 66911,
        "meta_element_set_no": 999,
        "meta_rev_at_epoch": 160,
        "meta_bstar": 0.0015692424,
        "meta_mean_motion_dot": 0.00096916,
        "meta_mean_motion_ddot": 0,
        "tle_line1": "1 66911U 98067XX  25346.72367662  .00096916  00000+0  15692-2 0  9997",
        "tle_line2": "2 66911  51.6296 142.4333 0004979 210.3883 149.6819 15.51996459  1607"
      },
      "geometry": {
        "type": "Point",
        "coordinates": [
          -155.00982698712824,
          48.95444861975233
        ]
      }
    },
    {
      "type": "Feature",
      "properties": {
        "norad_id": 66912,
        "name": "1998-067XY",
        "group": "stations",
        "lat": 37.380457010911186,
        "lon": 176.7868585269565,
        "alt_km": 411.30403671750355,
        "timestamp": "2025-12-13T07:35:40.356911+00:00",
        "meta_object_name": "1998-067XY",
        "meta_object_id": "1998-067XY",
        "meta_epoch": "2025-12-12T17:27:38.564352",
        "meta_mean_motion": 15.5112646,
        "meta_eccentricity": 0.00045766,
        "meta_inclination": 51.63,
        "meta_ra_of_asc_node": 142.4585,
        "meta_arg_of_pericenter": 223.461,
        "meta_mean_anomaly": 136.6019,
        "meta_ephemeris_type": 0,
        "meta_classification_type": "U",
        "meta_norad_cat_id": 66912,
        "meta_element_set_no": 999,
        "meta_rev_at_epoch": 160,
        "meta_bstar": 0.0011286003,
        "meta_mean_motion_dot": 0.00067169,
        "meta_mean_motion_ddot": 0,
        "tle_line1": "1 66912U 98067XY  25346.72752968  .00067169  00000+0  11286-2 0  9998",
        "tle_line2": "2 66912  51.6300 142.4585 0004576 223.4610 136.6019 15.51126460  1604"
      },
      "geometry": {
        "type": "Point",
        "coordinates": [
          176.7868585269565,
          37.380457010911186
        ]
      }
    }
  ]
}